[{"OBJECT_NAME":"STARLINK-5728","OBJECT_ID":"2023-020V","EPOCH":"2026-03-09T22:00:01.999584","MEAN_MOTION":15.12999401,"ECCENTRICITY":0.00012068,"INCLINATION":43.0006,"RA_OF_ASC_NODE":2.7584,"ARG_OF_PERICENTER":279.492,"MEAN_ANOMALY":348.9005,"EPHEMERIS_TYPE":0,"CLASSIFICATION_TYPE":"U","NORAD_CAT_ID":55588,"ELEMENT_SET_NO":999,"REV_AT_EPOCH":573,"BSTAR":0.026730069,"MEAN_MOTION_DOT":0.00510293,"MEAN_MOTION_DDOT":0},{"OBJECT_NAME":"TRANSPORTER-15 OBJECT CY","OBJECT_ID":"2025-276CY","EPOCH":"2026-03-09T16:54:57.446784","MEAN_MOTION":15.1927389,"ECCENTRICITY":8.727e-5,"INCLINATION":97.4254,"RA_OF_ASC_NODE":144.0461,"ARG_OF_PERICENTER":100.2944,"MEAN_ANOMALY":259.8389,"EPHEMERIS_TYPE":0,"CLASSIFICATION_TYPE":"U","NORAD_CAT_ID":66760,"ELEMENT_SET_NO":999,"REV_AT_EPOCH":1532,"BSTAR":0.00030148075,"MEAN_MOTION_DOT":6.292e-5,"MEAN_MOTION_DDOT":0}]
